{"type": "FeatureCollection", "features": [ {"type": "Feature", "properties": {"norad_id": 40938, "name": "BEIDOU-3S IGSO-2S (C56)", "group": "gnss", "lat": -1.0662021209636574, "lon": 81.78955017255086, "alt_km": 35533.50830143213, "timestamp": "2025-12-24T16:52:41.773198+00:00", "meta": {"OBJECT_NAME": "BEIDOU-3S IGSO-2S (C56)", "OBJECT_ID": "2015-053A", "EPOCH": "2025-12-23T17:00:29.513952", "MEAN_MOTION": 1.00267867, "ECCENTRICITY": 0.00606419, "INCLINATION": 49.4936, "RA_OF_ASC_NODE": 260.877, "ARG_OF_PERICENTER": 188.6586, "MEAN_ANOMALY": 353.8857, "EPHEMERIS_TYPE": 0, "CLASSIFICATION_TYPE": "U", "NORAD_CAT_ID": 40938, "ELEMENT_SET_NO": 999, "REV_AT_EPOCH": 3759, "BSTAR": 0, "MEAN_MOTION_DOT": -1.09e-06, "MEAN_MOTION_DDOT": 0}, "tle": {"line1": "1 40938U 15053A   25357.70867493 -.00000109  00000+0  00000+0 0  9993", "line2": "2 40938  49.4936 260.8770 0060641 188.6586 353.8857  1.00267867 37590"}}, "geometry": {"type": "Point", "coordinates": [81.78955017255086, -1.0662021209636574]}}, {"type": "Feature", "properties": {"norad_id": 41019, "name": "GPS BIIF-11 (PRN 10)", "group": "gnss", "lat": -41.31557689168492, "lon": 2.496289272275322, "alt_km": 20120.389085658175, "timestamp": "2025-12-24T16:52:41.773212+00:00", "meta": {"OBJECT_NAME": "GPS BIIF-11 (PRN 10)", "OBJECT_ID": "2015-062A", "EPOCH": "2025-12-23T18:41:09.835584", "MEAN_MOTION": 2.00567099, "ECCENTRICITY": 0.01110889, "INCLINATION": 56.8401, "RA_OF_ASC_NODE": 37.5754, "ARG_OF_PERICENTER": 230.2332, "MEAN_ANOMALY": 128.8479, "EPHEMERIS_TYPE": 0, "CLASSIFICATION_TYPE": "U", "NORAD_CAT_ID": 41019, "ELEMENT_SET_NO": 999, "REV_AT_EPOCH": 7431, "BSTAR": 0, "MEAN_MOTION_DOT": -4.7e-07, "MEAN_MOTION_DDOT": 0}, "tle": {"line1": "1 41019U 15062A   25357.77858606 -.00000047  00000+0  00000+0 0  9998", "line2": "2 41019  56.8401  37.5754 0111088 230.2332 128.8479  2.00567099 74318"}}, "geometry": {"type": "Point", "coordinates": [2.496289272275322, -41.31557689168492]}}, {"type": "Feature", "properties": {"norad_id": 41028, "name": "GSAT-15 (GAGAN/PRN 139)", "group": "gnss", "lat": 0.016180270525970788, "lon": 80.14491436856815, "alt_km": 35795.54832371613, "timestamp": "2025-12-24T16:52:41.773224+00:00", "meta": {"OBJECT_NAME": "GSAT-15 (GAGAN/PRN 139)", "OBJECT_ID": "2015-065A", "EPOCH": "2025-12-24T01:38:38.621184", "MEAN_MOTION": 1.00271676, "ECCENTRICITY": 0.00023603, "INCLINATION": 0.02, "RA_OF_ASC_NODE": 277.7383, "ARG_OF_PERICENTER": 322.3142, "MEAN_ANOMALY": 330.9697, "EPHEMERIS_TYPE": 0, "CLASSIFICATION_TYPE": "U", "NORAD_CAT_ID": 41028, "ELEMENT_SET_NO": 999, "REV_AT_EPOCH": 3704, "BSTAR": 0, "MEAN_MOTION_DOT": -2.37e-06, "MEAN_MOTION_DDOT": 0}, "tle": {"line1": "1 41028U 15065A   25358.06850256 -.00000237  00000+0  00000+0 0  9998", "line2": "2 41028   0.0200 277.7383 0002360 322.3142 330.9697  1.00271676 37045"}}, "geometry": {"type": "Point", "coordinates": [80.14491436856815, 0.016180270525970788]}}, {"type": "Feature", "properties": {"norad_id": 41174, "name": "GSAT0209 (GALILEO 12)", "group": "gnss", "lat": -52.51606158800478, "lon": 43.41325560254613, "alt_km": 23223.746563912693, "timestamp": "2025-12-24T16:52:41.773238+00:00", "meta": {"OBJECT_NAME": "GSAT0209 (GALILEO 12)", "OBJECT_ID": "2015-079A", "EPOCH": "2025-12-21T21:22:17.332896", "MEAN_MOTION": 1.70474556, "ECCENTRICITY": 0.00025231, "INCLINATION": 55.7178, "RA_OF_ASC_NODE": 106.13, "ARG_OF_PERICENTER": 342.7574, "MEAN_ANOMALY": 17.2091, "EPHEMERIS_TYPE": 0, "CLASSIFICATION_TYPE": "U", "NORAD_CAT_ID": 41174, "ELEMENT_SET_NO": 999, "REV_AT_EPOCH": 6175, "BSTAR": 0, "MEAN_MOTION_DOT": 5e-08, "MEAN_MOTION_DDOT": 0}, "tle": {"line1": "1 41174U 15079A   25355.89047839  .00000005  00000+0  00000+0 0  9990", "line2": "2 41174  55.7178 106.1300 0002523 342.7574  17.2091  1.70474556 61755"}}, "geometry": {"type": "Point", "coordinates": [43.41325560254613, -52.51606158800478]}}, {"type": "Feature", "properties": {"norad_id": 41175, "name": "GSAT0208 (GALILEO 11)", "group": "gnss", "lat": 23.478514036059195, "lon": -91.15891268438847, "alt_km": 23224.52438981722, "timestamp": "2025-12-24T16:52:41.773249+00:00", "meta": {"OBJECT_NAME": "GSAT0208 (GALILEO 11)", "OBJECT_ID": "2015-079B", "EPOCH": "2025-12-23T06:48:42.697728", "MEAN_MOTION": 1.7047421, "ECCENTRICITY": 0.0001871, "INCLINATION": 55.7171, "RA_OF_ASC_NODE": 106.0888, "ARG_OF_PERICENTER": 351.9973, "MEAN_ANOMALY": 7.984, "EPHEMERIS_TYPE": 0, "CLASSIFICATION_TYPE": "U", "NORAD_CAT_ID": 41175, "ELEMENT_SET_NO": 999, "REV_AT_EPOCH": 6219, "BSTAR": 0, "MEAN_MOTION_DOT": 1.1e-07, "MEAN_MOTION_DDOT": 0}, "tle": {"line1": "1 41175U 15079B   25357.28382752  .00000011  00000+0  00000+0 0  9999", "line2": "2 41175  55.7171 106.0888 0001871 351.9973   7.9840  1.70474210 62193"}}, "geometry": {"type": "Point", "coordinates": [-91.15891268438847, 23.478514036059195]}}, {"type": "Feature", "properties": {"norad_id": 41241, "name": "IRNSS-1E", "group": "gnss", "lat": 18.55803905933273, "lon": 93.60473395683087, "alt_km": 35866.142375684256, "timestamp": "2025-12-24T16:52:41.773261+00:00", "meta": {"OBJECT_NAME": "IRNSS-1E", "OBJECT_ID": "2016-003A", "EPOCH": "2025-12-23T15:49:14.018592", "MEAN_MOTION": 1.0026902, "ECCENTRICITY": 0.0021565, "INCLINATION": 32.8492, "RA_OF_ASC_NODE": 62.2938, "ARG_OF_PERICENTER": 188.8816, "MEAN_ANOMALY": 190.2765, "EPHEMERIS_TYPE": 0, "CLASSIFICATION_TYPE": "U", "NORAD_CAT_ID": 41241, "ELEMENT_SET_NO": 999, "REV_AT_EPOCH": 3632, "BSTAR": 0, "MEAN_MOTION_DOT": -2.93e-06, "MEAN_MOTION_DDOT": 0}, "tle": {"line1": "1 41241U 16003A   25357.65919003 -.00000293  00000+0  00000+0 0  9990", "line2": "2 41241  32.8492  62.2938 0021565 188.8816 190.2765  1.00269020 36325"}}, "geometry": {"type": "Point", "coordinates": [93.60473395683087, 18.55803905933273]}}, {"type": "Feature", "properties": {"norad_id": 41328, "name": "GPS BIIF-12 (PRN 32)", "group": "gnss", "lat": -49.29124050431305, "lon": -30.407772092081427, "alt_km": 19942.19371832471, "timestamp": "2025-12-24T16:52:41.773273+00:00", "meta": {"OBJECT_NAME": "GPS BIIF-12 (PRN 32)", "OBJECT_ID": "2016-007A", "EPOCH": "2025-12-23T20:40:23.632032", "MEAN_MOTION": 2.00560126, "ECCENTRICITY": 0.00927286, "INCLINATION": 55.4122, "RA_OF_ASC_NODE": 96.4156, "ARG_OF_PERICENTER": 243.8623, "MEAN_ANOMALY": 115.1928, "EPHEMERIS_TYPE": 0, "CLASSIFICATION_TYPE": "U", "NORAD_CAT_ID": 41328, "ELEMENT_SET_NO": 999, "REV_AT_EPOCH": 7232, "BSTAR": 0, "MEAN_MOTION_DOT": 1.1e-07, "MEAN_MOTION_DDOT": 0}, "tle": {"line1": "1 41328U 16007A   25357.86138463  .00000011  00000+0  00000+0 0  9993", "line2": "2 41328  55.4122  96.4156 0092728 243.8623 115.1928  2.00560126 72329"}}, "geometry": {"type": "Point", "coordinates": [-30.407772092081427, -49.29124050431305]}}, {"type": "Feature", "properties": {"norad_id": 41330, "name": "COSMOS 2514 (751)", "group": "gnss", "lat": -11.831798948208139, "lon": -46.59383787485022, "alt_km": 19149.657968234693, "timestamp": "2025-12-24T16:52:41.773284+00:00", "meta": {"OBJECT_NAME": "COSMOS 2514 (751)", "OBJECT_ID": "2016-008A", "EPOCH": "2025-12-23T18:45:46.770912", "MEAN_MOTION": 2.13102642, "ECCENTRICITY": 0.00116336, "INCLINATION": 65.1274, "RA_OF_ASC_NODE": 319.026, "ARG_OF_PERICENTER": 220.0869, "MEAN_ANOMALY": 139.8272, "EPHEMERIS_TYPE": 0, "CLASSIFICATION_TYPE": "U", "NORAD_CAT_ID": 41330, "ELEMENT_SET_NO": 999, "REV_AT_EPOCH": 7688, "BSTAR": 0, "MEAN_MOTION_DOT": -3.5e-07, "MEAN_MOTION_DDOT": 0}, "tle": {"line1": "1 41330U 16008A   25357.78179133 -.00000035  00000+0  00000+0 0  9994", "line2": "2 41330  65.1274 319.0260 0011633 220.0869 139.8272  2.13102642 76882"}}, "geometry": {"type": "Point", "coordinates": [-46.59383787485022, -11.831798948208139]}}, {"type": "Feature", "properties": {"norad_id": 41384, "name": "IRNSS-1F", "group": "gnss", "lat": -4.8589885777219255, "lon": 19.460048054435, "alt_km": 35795.23491786616, "timestamp": "2025-12-24T16:52:41.773296+00:00", "meta": {"OBJECT_NAME": "IRNSS-1F", "OBJECT_ID": "2016-015A", "EPOCH": "2025-12-23T23:33:29.527200", "MEAN_MOTION": 1.00278072, "ECCENTRICITY": 0.00226621, "INCLINATION": 4.9093, "RA_OF_ASC_NODE": 101.0199, "ARG_OF_PERICENTER": 182.1246, "MEAN_ANOMALY": 195.4962, "EPHEMERIS_TYPE": 0, "CLASSIFICATION_TYPE": "U", "NORAD_CAT_ID": 41384, "ELEMENT_SET_NO": 999, "REV_AT_EPOCH": 3591, "BSTAR": 0, "MEAN_MOTION_DOT": 1.77e-06, "MEAN_MOTION_DDOT": 0}, "tle": {"line1": "1 41384U 16015A   25357.98159175  .00000177  00000+0  00000+0 0  9993", "line2": "2 41384   4.9093 101.0199 0022662 182.1246 195.4962  1.00278072 35911"}}, "geometry": {"type": "Point", "coordinates": [19.460048054435, -4.8589885777219255]}}, {"type": "Feature", "properties": {"norad_id": 41434, "name": "BEIDOU-2 IGSO-6 (C13)", "group": "gnss", "lat": 34.245611487500966, "lon": 62.97911614564157, "alt_km": 36031.35941266109, "timestamp": "2025-12-24T16:52:41.773307+00:00", "meta": {"OBJECT_NAME": "BEIDOU-2 IGSO-6 (C13)", "OBJECT_ID": "2016-021A", "EPOCH": "2025-12-18T14:33:38.837664", "MEAN_MOTION": 1.00292299, "ECCENTRICITY": 0.00610054, "INCLINATION": 59.9732, "RA_OF_ASC_NODE": 39.8392, "ARG_OF_PERICENTER": 230.2031, "MEAN_ANOMALY": 129.1398, "EPHEMERIS_TYPE": 0, "CLASSIFICATION_TYPE": "U", "NORAD_CAT_ID": 41434, "ELEMENT_SET_NO": 999, "REV_AT_EPOCH": 3566, "BSTAR": 0, "MEAN_MOTION_DOT": -1.41e-06, "MEAN_MOTION_DDOT": 0}, "tle": {"line1": "1 41434U 16021A   25352.60669951 -.00000141  00000+0  00000+0 0  9990", "line2": "2 41434  59.9732  39.8392 0061005 230.2031 129.1398  1.00292299 35667"}}, "geometry": {"type": "Point", "coordinates": [62.97911614564157, 34.245611487500966]}}]}